BEIDOU-2 IGSO-1 (C06)   
1 36828U 10036A   23157.48703962 -.00000060  00000+0  00000+0 0  9999
2 36828  54.2325 172.9885 0038098 191.9920 172.1386  1.00294818 47135
BEIDOU-2 G4 (C04)       
1 37210U 10057A   23157.64138743 -.00000105  00000+0  00000+0 0  9995
2 37210   0.9918  55.4907 0001901 143.8768  86.3590  1.00271593 46199
BEIDOU-2 IGSO-2 (C07)   
1 37256U 10068A   23157.24476854 -.00000206  00000+0  00000+0 0  9993
2 37256  49.5747 285.3970 0027151 201.6429 322.1114  1.00254793 45694
BEIDOU-2 IGSO-3 (C08)   
1 37384U 11013A   23157.29642473 -.00000193  00000+0  00000+0 0  9998
2 37384  60.8043  50.7742 0022775 179.0229 237.2441  1.00261382 44561
BEIDOU-2 IGSO-4 (C09)   
1 37763U 11038A   23157.44119774  .00000061  00000+0  00000+0 0  9999
2 37763  54.5053 175.5148 0111337 228.3978 101.9965  1.00291747 43544
BEIDOU-2 IGSO-5 (C10)   
1 37948U 11073A   23153.20379128 -.00000160  00000+0  00000+0 0  9995
2 37948  49.7052 285.1048 0088762 218.5680 273.1015  1.00254438 41998
BEIDOU-2 G5 (C05)       
1 38091U 12008A   23157.69294905  .00000062  00000+0  00000+0 0  9990
2 38091   1.5065  66.4528 0003461 285.5758 211.0430  1.00275363 41389
BEIDOU-2 M3 (C11)       
1 38250U 12018A   23156.45275313 -.00000066  00000+0  00000+0 0  9998
2 38250  56.5592 341.8828 0020333 258.2651 101.5196  1.86231103 75310
BEIDOU-2 M4 (C12)       
1 38251U 12018B   23156.38486216 -.00000065  00000+0  00000+0 0  9996
2 38251  56.4712 341.1849 0011250 260.7828  99.1022  1.86234108 75310
BEIDOU-2 M6 (C14)       
1 38775U 12050B   23156.63159651  .00000005  00000+0  00000+0 0  9994
2 38775  55.6289  99.8116 0014671 329.2723  30.6049  1.86231131 72689
BEIDOU-2 G6 (C02)       
1 38953U 12059A   23157.75674696 -.00000170  00000+0  00000+0 0  9990
2 38953   1.8085  82.3889 0010855 317.8311 211.1020  1.00273746 38955
BEIDOU-3S IGSO-1S (C31) 
1 40549U 15019A   23157.25159840 -.00000192  00000+0  00000+0 0  9991
2 40549  51.2658 308.6250 0038481 191.7773 301.3648  1.00276031 29976
BEIDOU-3S M2S (C57)     
1 40748U 15037A   23157.05789790 -.00000067  00000+0  00000+0 0  9994
2 40748  55.7139 339.8127 0004628  49.0058 311.0431  1.86233279 53501
BEIDOU-3S M1S (C58)     
1 40749U 15037B   23155.24731304 -.00000065  00000+0  00000+0 0  9990
2 40749  55.7179 339.8649 0004013   1.8503 358.1648  1.86232883 53461
BEIDOU-3S IGSO-2S (C56) 
1 40938U 15053A   23157.24601159 -.00000130  00000+0  00000+0 0  9997
2 40938  50.9489 271.7911 0047605 194.1593 331.3518  1.00257573 28254
BEIDOU-2 IGSO-6 (C13)   
1 41434U 16021A   23157.44454265 -.00000158  00000+0  00000+0 0  9991
2 41434  58.6172  49.1864 0045621 223.8083 234.5388  1.00257122 26385
BEIDOU-2 G7 (C03)       
1 41586U 16037A   23157.57966079 -.00000347  00000+0  00000+0 0  9991
2 41586   1.6669  66.8257 0009107 355.6101 151.4536  1.00266328 25691
BEIDOU-3 M1 (C19)       
1 43001U 17069A   23157.47196605  .00000008  00000+0  00000+0 0  9993
2 43001  55.7813  99.8309 0011606 299.5622  60.2888  1.86231322 37994
BEIDOU-3 M2 (C20)       
1 43002U 17069B   23156.33457021  .00000004  00000+0  00000+0 0  9996
2 43002  55.7800  99.9046 0009737 319.7896  40.1004  1.86231072 37966
BEIDOU-3 M7 (C27)       
1 43107U 18003A   23157.15992446 -.00000069  00000+0  00000+0 0  9999
2 43107  55.1691 340.5704 0005441  67.2392 292.8281  1.86232352 36733
BEIDOU-3 M8 (C28)       
1 43108U 18003B   23157.09728212 -.00000069  00000+0  00000+0 0  9991
2 43108  55.1623 340.5600 0001985 252.4705 107.5175  1.86230820 36742
BEIDOU-3 M4 (C22)       
1 43207U 18018A   23155.92908926  .00000003  00000+0  00000+0 0  9996
2 43207  55.7392  99.9846 0006996 339.3408  20.5916  1.86231297 36106
BEIDOU-3 M3 (C21)       
1 43208U 18018B   23155.99567903  .00000004  00000+0  00000+0 0  9991
2 43208  55.7386  99.9869 0009547 309.7343  50.1426  1.86231208 36106
BEIDOU-3 M9 (C29)       
1 43245U 18029A   23156.21912575 -.00000067  00000+0  00000+0 0  9999
2 43245  55.0680 338.3445 0000997  80.4819 279.5378  1.86232373 35261
BEIDOU-3 M10 (C30)      
1 43246U 18029B   23156.14930995 -.00000067  00000+0  00000+0 0  9998
2 43246  55.0650 338.3756 0004235  19.1506 340.8740  1.86232780 35240
BEIDOU-2 IGSO-7 (C16)   
1 43539U 18057A   23155.59094029 -.00000040  00000+0  00000+0 0  9992
2 43539  55.1040 172.6359 0061458 231.4473 172.7218  1.00258762 18033
BEIDOU-3 M5 (C23)       
1 43581U 18062A   23157.44398278  .00000054  00000+0  00000+0 0  9998
2 43581  54.1898 219.9816 0004785 269.1798  90.8578  1.86231800 33024
BEIDOU-3 M6 (C24)       
1 43582U 18062B   23155.69794531  .00000071  00000+0  00000+0 0  9995
2 43582  54.1898 220.0310 0004064 358.0077   2.0869  1.86229423 32996
BEIDOU-3 M12 (C26)      
1 43602U 18067A   23156.17214453  .00000070  00000+0  00000+0 0  9996
2 43602  54.2764 218.6613 0006520  12.3278 347.7849  1.86231698 32481
BEIDOU-3 M11 (C25)      
1 43603U 18067B   23157.37982403  .00000057  00000+0  00000+0 0  9992
2 43603  54.2733 218.5861 0003644 355.9559   4.1343  1.86231566 32537
BEIDOU-3 M13 (C32)      
1 43622U 18072A   23156.26387079  .00000003  00000+0  00000+0 0  9995
2 43622  55.7083  99.5160 0008172 298.2146  61.6652  1.86231531 32020
BEIDOU-3 M14 (C33)      
1 43623U 18072B   23156.66628362  .00000005  00000+0  00000+0 0  9995
2 43623  55.7104  99.4952 0006179 320.3400  39.5784  1.86231548 32026
BEIDOU-3 M16 (C35)      
1 43647U 18078A   23156.82657628 -.00000068  00000+0  00000+0 0  9992
2 43647  54.9634 338.4533 0007641  18.9474 341.0883  1.86227191 31544
BEIDOU-3 M15 (C34)      
1 43648U 18078B   23155.88572013 -.00000067  00000+0  00000+0 0  9991
2 43648  54.9598 338.4901 0004854  34.3065 325.7344  1.86232160 31536
BEIDOU-3 G1 (C59)       
1 43683U 18085A   23157.49409997 -.00000272  00000+0  00000+0 0  9995
2 43683   1.3271 131.0502 0004806 324.1324 117.2340  1.00264788 16965
BEIDOU-3 M17 (C36)      
1 43706U 18093A   23156.57151835  .00000064  00000+0  00000+0 0  9991
2 43706  54.2723 219.9222 0009912 274.7527  85.2296  1.86231917 30910
BEIDOU-3 M18 (C37)      
1 43707U 18093B   23156.97335197  .00000060  00000+0  00000+0 0  9997
2 43707  54.2730 219.8999 0007881 299.8212  60.1949  1.86229663 30913
BEIDOU-3 IGSO-1 (C38)   
1 44204U 19023A   23157.61646522 -.00000230  00000+0  00000+0 0  9993
2 44204  57.0832  49.1918 0018618 201.7226 343.0073  1.00255500 15269
BEIDOU-2 G8 (C01)       
1 44231U 19027A   23157.49497160 -.00000241  00000+0  00000+0 0  9997
2 44231   1.7346  81.2347 0004640 119.0921  17.0190  1.00268519 14981
BEIDOU-3 IGSO-2 (C39)   
1 44337U 19035A   23157.44494062 -.00000069  00000+0  00000+0 0  9994
2 44337  55.1471 168.5825 0030862 202.6930 159.5717  1.00248526 14572
BEIDOU-3 M24 (C46)      
1 44542U 19061A   23156.50880595  .00000065  00000+0  00000+0 0  9992
2 44542  54.4995 220.1359 0007460 337.2691  22.7935  1.86231173 25161
BEIDOU-3 M23 (C45)      
1 44543U 19061B   23156.91334313  .00000061  00000+0  00000+0 0  9996
2 44543  54.4977 220.0917 0005026 318.0634 224.9949  1.86231531 25171
BEIDOU-3 IGSO-3 (C40)   
1 44709U 19073A   23156.78237254 -.00000201  00000+0  00000+0 0  9991
2 44709  56.6868 292.6995 0032240 178.7080 181.2434  1.00255320 13352
BEIDOU-3 M22 (C44)      
1 44793U 19078A   23155.81681290 -.00000067  00000+0  00000+0 0  9995
2 44793  54.8125 338.4665 0006700  27.1598 332.8849  1.86232112 24003
BEIDOU-3 M21 (C43)      
1 44794U 19078B   23155.94760459 -.00000067  00000+0  00000+0 0  9995
2 44794  54.7864 338.4461 0004528  27.1062 332.9267  1.86232589 24013
BEIDOU-3 M19 (C41)      
1 44864U 19090A   23157.54995360  .00000008  00000+0  00000+0 0  9990
2 44864  55.6436  99.6650 0018546 278.5614 269.7609  1.86231551 23612
BEIDOU-3 M20 (C42)      
1 44865U 19090B   23156.81994581  .00000006  00000+0  00000+0 0  9992
2 44865  55.6451  99.7221 0016749 291.4129 217.2786  1.86231506 23594
BEIDOU-3 G2 (C60)       
1 45344U 20017A   23156.91438258 -.00000132  00000+0  00000+0 0  9992
2 45344   2.0088  11.4005 0003350  94.5394 197.3244  1.00269839 12153
BEIDOU-3 G3 (C61)       
1 45807U 20040A   23157.57966079 -.00000346  00000+0  00000+0 0  9999
2 45807   0.7243 328.2536 0005829 317.0041 288.7019  1.00267317 10970
BEIDOU-3 G4             
1 56564U 23066A   23157.49810953 -.00000103  00000+0  00000+0 0  9993
2 56564   3.0651 289.3442 0007006 184.5717 120.0669  1.00271727   293
